{"type": "FeatureCollection", "features": [ {"type": "Feature", "properties": {"norad_id": 66574, "name": "STARLINK-35812", "group": "last-30-days", "lat": -38.835530145580925, "lon": -58.46212641808837, "alt_km": 409.3066557234788, "timestamp": "2025-12-22T20:43:44.563376+00:00", "meta": {"OBJECT_NAME": "STARLINK-35812", "OBJECT_ID": "2025-268T", "EPOCH": "2025-12-22T14:00:01.999872", "MEAN_MOTION": 15.54617128, "ECCENTRICITY": 0.00011513, "INCLINATION": 43.0006, "RA_OF_ASC_NODE": 63.4288, "ARG_OF_PERICENTER": 283.1213, "MEAN_ANOMALY": 193.4717, "EPHEMERIS_TYPE": 0, "CLASSIFICATION_TYPE": "U", "NORAD_CAT_ID": 66574, "ELEMENT_SET_NO": 999, "REV_AT_EPOCH": 609, "BSTAR": -0.033911372, "MEAN_MOTION_DOT": -0.02052781, "MEAN_MOTION_DDOT": 0}, "tle": {"line1": "1 66574U 25268T   25356.58335648 -.02052781  00000+0 -33911-1 0  9998", "line2": "2 66574  43.0006  63.4288 0001151 283.1213 193.4717 15.54617128  6099"}}, "geometry": {"type": "Point", "coordinates": [-58.46212641808837, -38.835530145580925]}}, {"type": "Feature", "properties": {"norad_id": 66575, "name": "STARLINK-35810", "group": "last-30-days", "lat": -40.01157046332663, "lon": -53.962557314561735, "alt_km": 406.73814588760797, "timestamp": "2025-12-22T20:43:44.563386+00:00", "meta": {"OBJECT_NAME": "STARLINK-35810", "OBJECT_ID": "2025-268U", "EPOCH": "2025-12-22T14:00:01.999872", "MEAN_MOTION": 15.5546188, "ECCENTRICITY": 0.00012043, "INCLINATION": 43.0005, "RA_OF_ASC_NODE": 63.4216, "ARG_OF_PERICENTER": 272.132, "MEAN_ANOMALY": 207.2847, "EPHEMERIS_TYPE": 0, "CLASSIFICATION_TYPE": "U", "NORAD_CAT_ID": 66575, "ELEMENT_SET_NO": 999, "REV_AT_EPOCH": 609, "BSTAR": -0.032949518, "MEAN_MOTION_DOT": -0.02057644, "MEAN_MOTION_DDOT": 0}, "tle": {"line1": "1 66575U 25268U   25356.58335648 -.02057644  00000+0 -32950-1 0  9994", "line2": "2 66575  43.0005  63.4216 0001204 272.1320 207.2847 15.55461880  6097"}}, "geometry": {"type": "Point", "coordinates": [-53.962557314561735, -40.01157046332663]}}, {"type": "Feature", "properties": {"norad_id": 66576, "name": "STARLINK-35814", "group": "last-30-days", "lat": -40.86616009084213, "lon": -50.04197854909322, "alt_km": 404.12149912785026, "timestamp": "2025-12-22T20:43:44.563397+00:00", "meta": {"OBJECT_NAME": "STARLINK-35814", "OBJECT_ID": "2025-268V", "EPOCH": "2025-12-22T14:00:01.999872", "MEAN_MOTION": 15.56274806, "ECCENTRICITY": 0.00014983, "INCLINATION": 43.0007, "RA_OF_ASC_NODE": 63.4162, "ARG_OF_PERICENTER": 269.0532, "MEAN_ANOMALY": 212.6424, "EPHEMERIS_TYPE": 0, "CLASSIFICATION_TYPE": "U", "NORAD_CAT_ID": 66576, "ELEMENT_SET_NO": 999, "REV_AT_EPOCH": 609, "BSTAR": -0.031396152, "MEAN_MOTION_DOT": -0.0202524, "MEAN_MOTION_DDOT": 0}, "tle": {"line1": "1 66576U 25268V   25356.58335648 -.02025240  00000+0 -31396-1 0  9995", "line2": "2 66576  43.0007  63.4162 0001498 269.0532 212.6424 15.56274806  6097"}}, "geometry": {"type": "Point", "coordinates": [-50.04197854909322, -40.86616009084213]}}, {"type": "Feature", "properties": {"norad_id": 66577, "name": "STARLINK-35815", "group": "last-30-days", "lat": -41.491851074378594, "lon": -46.59476041333741, "alt_km": 401.19060424169766, "timestamp": "2025-12-22T20:43:44.563407+00:00", "meta": {"OBJECT_NAME": "STARLINK-35815", "OBJECT_ID": "2025-268W", "EPOCH": "2025-12-22T14:00:01.999872", "MEAN_MOTION": 15.56614681, "ECCENTRICITY": 0.0001032, "INCLINATION": 43.0006, "RA_OF_ASC_NODE": 63.4116, "ARG_OF_PERICENTER": 281.1575, "MEAN_ANOMALY": 202.436, "EPHEMERIS_TYPE": 0, "CLASSIFICATION_TYPE": "U", "NORAD_CAT_ID": 66577, "ELEMENT_SET_NO": 999, "REV_AT_EPOCH": 609, "BSTAR": -0.0094125553, "MEAN_MOTION_DOT": -0.00635953, "MEAN_MOTION_DDOT": 0}, "tle": {"line1": "1 66577U 25268W   25356.58335648 -.00635953  00000+0 -94126-2 0  9993", "line2": "2 66577  43.0006  63.4116 0001032 281.1575 202.4360 15.56614681  6097"}}, "geometry": {"type": "Point", "coordinates": [-46.59476041333741, -41.491851074378594]}}, {"type": "Feature", "properties": {"norad_id": 66578, "name": "STARLINK-35743", "group": "last-30-days", "lat": -41.875699090981755, "lon": -44.08710256377037, "alt_km": 400.510333886783, "timestamp": "2025-12-22T20:43:44.563418+00:00", "meta": {"OBJECT_NAME": "STARLINK-35743", "OBJECT_ID": "2025-268X", "EPOCH": "2025-12-22T14:00:01.999872", "MEAN_MOTION": 15.56368362, "ECCENTRICITY": 0.00014159, "INCLINATION": 43.0006, "RA_OF_ASC_NODE": 63.4066, "ARG_OF_PERICENTER": 277.5016, "MEAN_ANOMALY": 208.0493, "EPHEMERIS_TYPE": 0, "CLASSIFICATION_TYPE": "U", "NORAD_CAT_ID": 66578, "ELEMENT_SET_NO": 999, "REV_AT_EPOCH": 609, "BSTAR": 0.00083581058, "MEAN_MOTION_DOT": 0.00060631, "MEAN_MOTION_DDOT": 0}, "tle": {"line1": "1 66578U 25268X   25356.58335648  .00060631  00000+0  83581-3 0  9991", "line2": "2 66578  43.0006  63.4066 0001415 277.5016 208.0493 15.56368362  6097"}}, "geometry": {"type": "Point", "coordinates": [-44.08710256377037, -41.875699090981755]}}, {"type": "Feature", "properties": {"norad_id": 66579, "name": "STARLINK-35868", "group": "last-30-days", "lat": -42.20355379073402, "lon": -41.55411734159501, "alt_km": 400.40692669286454, "timestamp": "2025-12-22T20:43:44.563428+00:00", "meta": {"OBJECT_NAME": "STARLINK-35868", "OBJECT_ID": "2025-268Y", "EPOCH": "2025-12-22T14:00:01.999872", "MEAN_MOTION": 15.5636118, "ECCENTRICITY": 0.00015591, "INCLINATION": 43.0004, "RA_OF_ASC_NODE": 63.4023, "ARG_OF_PERICENTER": 275.1919, "MEAN_ANOMALY": 212.2773, "EPHEMERIS_TYPE": 0, "CLASSIFICATION_TYPE": "U", "NORAD_CAT_ID": 66579, "ELEMENT_SET_NO": 999, "REV_AT_EPOCH": 609, "BSTAR": 0.0010293057, "MEAN_MOTION_DOT": 0.00074868, "MEAN_MOTION_DDOT": 0}, "tle": {"line1": "1 66579U 25268Y   25356.58335648  .00074868  00000+0  10293-2 0  9998", "line2": "2 66579  43.0004  63.4023 0001559 275.1919 212.2773 15.56361180  6093"}}, "geometry": {"type": "Point", "coordinates": [-41.55411734159501, -42.20355379073402]}}, {"type": "Feature", "properties": {"norad_id": 66580, "name": "STARLINK-35872", "group": "last-30-days", "lat": -42.476190292984874, "lon": -38.98857577412229, "alt_km": 400.49003806809196, "timestamp": "2025-12-22T20:43:44.563438+00:00", "meta": {"OBJECT_NAME": "STARLINK-35872", "OBJECT_ID": "2025-268Z", "EPOCH": "2025-12-22T14:00:01.999872", "MEAN_MOTION": 15.56362723, "ECCENTRICITY": 0.00015295, "INCLINATION": 43.0006, "RA_OF_ASC_NODE": 63.3974, "ARG_OF_PERICENTER": 276.2309, "MEAN_ANOMALY": 213.1702, "EPHEMERIS_TYPE": 0, "CLASSIFICATION_TYPE": "U", "NORAD_CAT_ID": 66580, "ELEMENT_SET_NO": 999, "REV_AT_EPOCH": 599, "BSTAR": 0.00047222309, "MEAN_MOTION_DOT": 0.00033974, "MEAN_MOTION_DDOT": 0}, "tle": {"line1": "1 66580U 25268Z   25356.58335648  .00033974  00000+0  47222-3 0  9996", "line2": "2 66580  43.0006  63.3974 0001529 276.2309 213.1702 15.56362723  5997"}}, "geometry": {"type": "Point", "coordinates": [-38.98857577412229, -42.476190292984874]}}, {"type": "Feature", "properties": {"norad_id": 66581, "name": "STARLINK-35744", "group": "last-30-days", "lat": -42.690041422422155, "lon": -36.41342282951512, "alt_km": 400.46831005803324, "timestamp": "2025-12-22T20:43:44.563448+00:00", "meta": {"OBJECT_NAME": "STARLINK-35744", "OBJECT_ID": "2025-268AA", "EPOCH": "2025-12-22T14:00:01.999872", "MEAN_MOTION": 15.56367647, "ECCENTRICITY": 0.00015528, "INCLINATION": 43.0006, "RA_OF_ASC_NODE": 63.3917, "ARG_OF_PERICENTER": 277.1191, "MEAN_ANOMALY": 214.1928, "EPHEMERIS_TYPE": 0, "CLASSIFICATION_TYPE": "U", "NORAD_CAT_ID": 66581, "ELEMENT_SET_NO": 999, "REV_AT_EPOCH": 609, "BSTAR": 0.00043531865, "MEAN_MOTION_DOT": 0.00031285, "MEAN_MOTION_DDOT": 0}, "tle": {"line1": "1 66581U 25268AA  25356.58335648  .00031285  00000+0  43532-3 0  9990", "line2": "2 66581  43.0006  63.3917 0001552 277.1191 214.1928 15.56367647  6093"}}, "geometry": {"type": "Point", "coordinates": [-36.41342282951512, -42.690041422422155]}}, {"type": "Feature", "properties": {"norad_id": 66582, "name": "STARLINK-35746", "group": "last-30-days", "lat": -42.845569206040004, "lon": -33.82213676281657, "alt_km": 400.50208050616493, "timestamp": "2025-12-22T20:43:44.563459+00:00", "meta": {"OBJECT_NAME": "STARLINK-35746", "OBJECT_ID": "2025-268AB", "EPOCH": "2025-12-22T14:00:01.999872", "MEAN_MOTION": 15.56369185, "ECCENTRICITY": 0.00014578, "INCLINATION": 43.0006, "RA_OF_ASC_NODE": 63.3872, "ARG_OF_PERICENTER": 271.0249, "MEAN_ANOMALY": 222.1971, "EPHEMERIS_TYPE": 0, "CLASSIFICATION_TYPE": "U", "NORAD_CAT_ID": 66582, "ELEMENT_SET_NO": 999, "REV_AT_EPOCH": 609, "BSTAR": 0.00047041484, "MEAN_MOTION_DOT": 0.0003385, "MEAN_MOTION_DDOT": 0}, "tle": {"line1": "1 66582U 25268AB  25356.58335648  .00033850  00000+0  47041-3 0  9990", "line2": "2 66582  43.0006  63.3872 0001457 271.0249 222.1971 15.56369185  6091"}}, "geometry": {"type": "Point", "coordinates": [-33.82213676281657, -42.845569206040004]}}, {"type": "Feature", "properties": {"norad_id": 66583, "name": "STARLINK-35941", "group": "last-30-days", "lat": -42.94242215998937, "lon": -31.212027485504322, "alt_km": 400.4365291418944, "timestamp": "2025-12-22T20:43:44.563469+00:00", "meta": {"OBJECT_NAME": "STARLINK-35941", "OBJECT_ID": "2025-268AC", "EPOCH": "2025-12-22T14:00:01.999872", "MEAN_MOTION": 15.56365232, "ECCENTRICITY": 0.00016278, "INCLINATION": 43.0006, "RA_OF_ASC_NODE": 63.3824, "ARG_OF_PERICENTER": 281.5206, "MEAN_ANOMALY": 213.6298, "EPHEMERIS_TYPE": 0, "CLASSIFICATION_TYPE": "U", "NORAD_CAT_ID": 66583, "ELEMENT_SET_NO": 999, "REV_AT_EPOCH": 609, "BSTAR": 0.00045767793, "MEAN_MOTION_DOT": 0.00032915, "MEAN_MOTION_DDOT": 0}, "tle": {"line1": "1 66583U 25268AC  25356.58335648  .00032915  00000+0  45768-3 0  9996", "line2": "2 66583  43.0006  63.3824 0001627 281.5206 213.6298 15.56365232  6093"}}, "geometry": {"type": "Point", "coordinates": [-31.212027485504322, -42.94242215998937]}}]}